STARLINK-4572           
1 53692U 22105AW  26068.67304046  .00012459  00000+0  56421-3 0  9998
2 53692  97.6182 315.6347 0001842  18.3505 341.7796 15.21020685193556
FLOCK 4H-21             
1 66724U 25276BL  26068.75564709  .00007650  00000+0  36207-3 0  9990
2 66724  97.4250 144.1168 0001053 302.6819  57.4314 15.19629565 14588
